{
"type": "FeatureCollection",
"name": "sample_blocks",
"crs": { "type": "name", "properties": { "name": "urn:ogc:def:crs:OGC:1.3:CRS84" } },
"features": [
{ "type": "Feature", "properties": { "block_id": "block-000" }, "geometry": { "type": "Polygon", "coordinates": [ [ [ 2.27125, 48.8 ], [ 2.27125, 48.8125 ], [ 2.25, 48.8125 ], [ 2.25, 48.8 ], [ 2.27125, 48.8 ] ] ] } },
{ "type": "Feature", "properties": { "block_id": "block-001" }, "geometry": { "type": "Polygon", "coordinates": [ [ [ 2.27125, 48.8125 ], [ 2.27125, 48.825 ], [ 2.25, 48.825 ], [ 2.25, 48.8125 ], [ 2.27125, 48.8125 ] ] ] } },
{ "type": "Feature", "properties": { "block_id": "block-002" }, "geometry": { "type": "Polygon", "coordinates": [ [ [ 2.27125, 48.8375 ], [ 2.27125, 48.85 ], [ 2.25, 48.85 ], [ 2.25, 48.8375 ], [ 2.27125, 48.8375 ] ] ] } },
{ "type": "Feature", "properties": { "block_id": "block-003" }, "geometry": { "type": "Polygon", "coordinates": [ [ [ 2.27125, 48.85 ], [ 2.27125, 48.8625 ], [ 2.25, 48.8625 ], [ 2.25, 48.85 ], [ 2.27125, 48.85 ] ] ] } },
{ "type": "Feature", "properties": { "block_id": "block-004" }, "geometry": { "type": "Polygon", "coordinates": [ [ [ 2.27125, 48.875 ], [ 2.27125, 48.8875 ], [ 2.25, 48.8875 ], [ 2.25, 48.875 ], [ 2.27125, 48.875 ] ] ] } },
{ "type": "Feature", "properties": { "block_id": "block-005" }, "geometry": { "type": "Polygon", "coordinates": [ [ [ 2.27125, 48.8875 ], [ 2.27125, 48.9 ], [ 2.25, 48.9 ], [ 2.25, 48.8875 ], [ 2.27125, 48.8875 ] ] ] } },
{ "type": "Feature", "properties": { "block_id": "block-006" }, "geometry": { "type": "Polygon", "coordinates": [ [ [ 2.2925, 48.825 ], [ 2.2925, 48.8375 ], [ 2.27125, 48.8375 ], [ 2.27125, 48.825 ], [ 2.2925, 48.825 ] ] ] } },
{ "type": "Feature", "properties": { "block_id": "block-007" }, "geometry": { "type": "Polygon", "coordinates": [ [ [ 2.2925, 48.8375 ], [ 2.2925, 48.85 ], [ 2.27125, 48.85 ], [ 2.27125, 48.8375 ], [ 2.2925, 48.8375 ] ] ] } },
{ "type": "Feature", "properties": { "block_id": "block-008" }, "geometry": { "type": "Polygon", "coordinates": [ [ [ 2.2925, 48.8625 ], [ 2.2925, 48.875 ], [ 2.27125, 48.875 ], [ 2.27125, 48.8625 ], [ 2.2925, 48.8625 ] ] ] } },
{ "type": "Feature", "properties": { "block_id": "block-009" }, "geometry": { "type": "Polygon", "coordinates": [ [ [ 2.2925, 48.875 ], [ 2.2925, 48.8875 ], [ 2.27125, 48.8875 ], [ 2.27125, 48.875 ], [ 2.2925, 48.875 ] ] ] } },
{ "type": "Feature", "properties": { "block_id": "block-010" }, "geometry": { "type": "Polygon", "coordinates": [ [ [ 2.31375, 48.8125 ], [ 2.31375, 48.825 ], [ 2.2925, 48.825 ], [ 2.2925, 48.8125 ], [ 2.31375, 48.8125 ] ] ] } },
{ "type": "Feature", "properties": { "block_id": "block-011" }, "geometry": { "type": "Polygon", "coordinates": [ [ [ 2.31375, 48.8375 ], [ 2.31375, 48.85 ], [ 2.2925, 48.85 ], [ 2.2925, 48.8375 ], [ 2.31375, 48.8375 ] ] ] } },
{ "type": "Feature", "properties": { "block_id": "block-012" }, "geometry": { "type": "Polygon", "coordinates": [ [ [ 2.31375, 48.8625 ], [ 2.31375, 48.875 ], [ 2.2925, 48.875 ], [ 2.2925, 48.8625 ], [ 2.31375, 48.8625 ] ] ] } },
{ "type": "Feature", "properties": { "block_id": "block-013" }, "geometry": { "type": "Polygon", "coordinates": [ [ [ 2.31375, 48.875 ], [ 2.31375, 48.8875 ], [ 2.2925, 48.8875 ], [ 2.2925, 48.875 ], [ 2.31375, 48.875 ] ] ] } },
{ "type": "Feature", "properties": { "block_id": "block-014" }, "geometry": { "type": "Polygon", "coordinates": [ [ [ 2.31375, 48.8875 ], [ 2.31375, 48.9 ], [ 2.2925, 48.9 ], [ 2.2925, 48.8875 ], [ 2.31375, 48.8875 ] ] ] } },
{ "type": "Feature", "properties": { "block_id": "block-015" }, "geometry": { "type": "Polygon", "coordinates": [ [ [ 2.335, 48.8 ], [ 2.335, 48.8125 ], [ 2.31375, 48.8125 ], [ 2.31375, 48.8 ], [ 2.335, 48.8 ] ] ] } },
{ "type": "Feature", "properties": { "block_id": "block-016" }, "geometry": { "type": "Polygon", "coordinates": [ [ [ 2.335, 48.8125 ], [ 2.335, 48.825 ], [ 2.31375, 48.825 ], [ 2.31375, 48.8125 ], [ 2.335, 48.8125 ] ] ] } },
{ "type": "Feature", "properties": { "block_id": "block-017" }, "geometry": { "type": "Polygon", "coordinates": [ [ [ 2.335, 48.825 ], [ 2.335, 48.8375 ], [ 2.31375, 48.8375 ], [ 2.31375, 48.825 ], [ 2.335, 48.825 ] ] ] } },
{ "type": "Feature", "properties": { "block_id": "block-018" }, "geometry": { "type": "Polygon", "coordinates": [ [ [ 2.335, 48.8625 ], [ 2.335, 48.875 ], [ 2.31375, 48.875 ], [ 2.31375, 48.8625 ], [ 2.335, 48.8625 ] ] ] } },
{ "type": "Feature", "properties": { "block_id": "block-019" }, "geometry": { "type": "Polygon", "coordinates": [ [ [ 2.335, 48.875 ], [ 2.335, 48.8875 ], [ 2.31375, 48.8875 ], [ 2.31375, 48.875 ], [ 2.335, 48.875 ] ] ] } },
{ "type": "Feature", "properties": { "block_id": "block-020" }, "geometry": { "type": "Polygon", "coordinates": [ [ [ 2.335, 48.8875 ], [ 2.335, 48.9 ], [ 2.31375, 48.9 ], [ 2.31375, 48.8875 ], [ 2.335, 48.8875 ] ] ] } },
{ "type": "Feature", "properties": { "block_id": "block-021" }, "geometry": { "type": "Polygon", "coordinates": [ [ [ 2.35625, 48.8 ], [ 2.35625, 48.8125 ], [ 2.335, 48.8125 ], [ 2.335, 48.8 ], [ 2.35625, 48.8 ] ] ] } },
{ "type": "Feature", "properties": { "block_id": "block-022" }, "geometry": { "type": "Polygon", "coordinates": [ [ [ 2.35625, 48.825 ], [ 2.35625, 48.8375 ], [ 2.335, 48.8375 ], [ 2.335, 48.825 ], [ 2.35625, 48.825 ] ] ] } },
{ "type": "Feature", "properties": { "block_id": "block-023" }, "geometry": { "type": "Polygon", "coordinates": [ [ [ 2.35625, 48.8375 ], [ 2.35625, 48.85 ], [ 2.335, 48.85 ], [ 2.335, 48.8375 ], [ 2.35625, 48.8375 ] ] ] } },
{ "type": "Feature", "properties": { "block_id": "block-024" }, "geometry": { "type": "Polygon", "coordinates": [ [ [ 2.35625, 48.8625 ], [ 2.35625, 48.875 ], [ 2.335, 48.875 ], [ 2.335, 48.8625 ], [ 2.35625, 48.8625 ] ] ] } },
{ "type": "Feature", "properties": { "block_id": "block-025" }, "geometry": { "type": "Polygon", "coordinates": [ [ [ 2.35625, 48.8875 ], [ 2.35625, 48.9 ], [ 2.335, 48.9 ], [ 2.335, 48.8875 ], [ 2.35625, 48.8875 ] ] ] } },
{ "type": "Feature", "properties": { "block_id": "block-026" }, "geometry": { "type": "Polygon", "coordinates": [ [ [ 2.3775, 48.8 ], [ 2.3775, 48.8125 ], [ 2.35625, 48.8125 ], [ 2.35625, 48.8 ], [ 2.3775, 48.8 ] ] ] } },
{ "type": "Feature", "properties": { "block_id": "block-027" }, "geometry": { "type": "Polygon", "coordinates": [ [ [ 2.3775, 48.8125 ], [ 2.3775, 48.825 ], [ 2.35625, 48.825 ], [ 2.35625, 48.8125 ], [ 2.3775, 48.8125 ] ] ] } },
{ "type": "Feature", "properties": { "block_id": "block-028" }, "geometry": { "type": "Polygon", "coordinates": [ [ [ 2.3775, 48.825 ], [ 2.3775, 48.8375 ], [ 2.35625, 48.8375 ], [ 2.35625, 48.825 ], [ 2.3775, 48.825 ] ] ] } },
{ "type": "Feature", "properties": { "block_id": "block-029" }, "geometry": { "type": "Polygon", "coordinates": [ [ [ 2.3775, 48.8375 ], [ 2.3775, 48.85 ], [ 2.35625, 48.85 ], [ 2.35625, 48.8375 ], [ 2.3775, 48.8375 ] ] ] } },
{ "type": "Feature", "properties": { "block_id": "block-030" }, "geometry": { "type": "Polygon", "coordinates": [ [ [ 2.3775, 48.875 ], [ 2.3775, 48.8875 ], [ 2.35625, 48.8875 ], [ 2.35625, 48.875 ], [ 2.3775, 48.875 ] ] ] } },
{ "type": "Feature", "properties": { "block_id": "block-031" }, "geometry": { "type": "Polygon", "coordinates": [ [ [ 2.3775, 48.8875 ], [ 2.3775, 48.9 ], [ 2.35625, 48.9 ], [ 2.35625, 48.8875 ], [ 2.3775, 48.8875 ] ] ] } },
{ "type": "Feature", "properties": { "block_id": "block-032" }, "geometry": { "type": "Polygon", "coordinates": [ [ [ 2.39875, 48.8 ], [ 2.39875, 48.8125 ], [ 2.3775, 48.8125 ], [ 2.3775, 48.8 ], [ 2.39875, 48.8 ] ] ] } },
{ "type": "Feature", "properties": { "block_id": "block-033" }, "geometry": { "type": "Polygon", "coordinates": [ [ [ 2.39875, 48.825 ], [ 2.39875, 48.8375 ], [ 2.3775, 48.8375 ], [ 2.3775, 48.825 ], [ 2.39875, 48.825 ] ] ] } },
{ "type": "Feature", "properties": { "block_id": "block-034" }, "geometry": { "type": "Polygon", "coordinates": [ [ [ 2.39875, 48.85 ], [ 2.39875, 48.8625 ], [ 2.3775, 48.8625 ], [ 2.3775, 48.85 ], [ 2.39875, 48.85 ] ] ] } },
{ "type": "Feature", "properties": { "block_id": "block-035" }, "geometry": { "type": "Polygon", "coordinates": [ [ [ 2.39875, 48.8625 ], [ 2.39875, 48.875 ], [ 2.3775, 48.875 ], [ 2.3775, 48.8625 ], [ 2.39875, 48.8625 ] ] ] } },
{ "type": "Feature", "properties": { "block_id": "block-036" }, "geometry": { "type": "Polygon", "coordinates": [ [ [ 2.39875, 48.8875 ], [ 2.39875, 48.9 ], [ 2.3775, 48.9 ], [ 2.3775, 48.8875 ], [ 2.39875, 48.8875 ] ] ] } },
{ "type": "Feature", "properties": { "block_id": "block-037" }, "geometry": { "type": "Polygon", "coordinates": [ [ [ 2.42, 48.8 ], [ 2.42, 48.8125 ], [ 2.39875, 48.8125 ], [ 2.39875, 48.8 ], [ 2.42, 48.8 ] ] ] } },
{ "type": "Feature", "properties": { "block_id": "block-038" }, "geometry": { "type": "Polygon", "coordinates": [ [ [ 2.42, 48.8125 ], [ 2.42, 48.825 ], [ 2.39875, 48.825 ], [ 2.39875, 48.8125 ], [ 2.42, 48.8125 ] ] ] } },
{ "type": "Feature", "properties": { "block_id": "block-039" }, "geometry": { "type": "Polygon", "coordinates": [ [ [ 2.42, 48.825 ], [ 2.42, 48.8375 ], [ 2.39875, 48.8375 ], [ 2.39875, 48.825 ], [ 2.42, 48.825 ] ] ] } },
{ "type": "Feature", "properties": { "block_id": "block-040" }, "geometry": { "type": "Polygon", "coordinates": [ [ [ 2.42, 48.8375 ], [ 2.42, 48.85 ], [ 2.39875, 48.85 ], [ 2.39875, 48.8375 ], [ 2.42, 48.8375 ] ] ] } },
{ "type": "Feature", "properties": { "block_id": "block-041" }, "geometry": { "type": "Polygon", "coordinates": [ [ [ 2.42, 48.85 ], [ 2.42, 48.8625 ], [ 2.39875, 48.8625 ], [ 2.39875, 48.85 ], [ 2.42, 48.85 ] ] ] } },
{ "type": "Feature", "properties": { "block_id": "block-042" }, "geometry": { "type": "Polygon", "coordinates": [ [ [ 2.42, 48.875 ], [ 2.42, 48.8875 ], [ 2.39875, 48.8875 ], [ 2.39875, 48.875 ], [ 2.42, 48.875 ] ] ] } },
{ "type": "Feature", "properties": { "block_id": "block-043" }, "geometry": { "type": "Polygon", "coordinates": [ [ [ 2.42, 48.8875 ], [ 2.42, 48.9 ], [ 2.39875, 48.9 ], [ 2.39875, 48.8875 ], [ 2.42, 48.8875 ] ] ] } }
]
}
